{
    "links": {
        "self": "http://www.neowsapp.com/rest/v1/neo/54054273?api_key=iIulBulltgU6a56xZRHN4H3l9WmuAYTsLGpBGhQ2"
    },
    "id": "54054273",
    "neo_reference_id": "54054273",
    "name": "(2020 RE5)",
    "designation": "2020 RE5",
    "nasa_jpl_url": "http://ssd.jpl.nasa.gov/sbdb.cgi?sstr=54054273",
    "absolute_magnitude_h": 29.046,
    "estimated_diameter": {
        "kilometers": {
            "estimated_diameter_min": 0.0041243449,
            "estimated_diameter_max": 0.0092223156
        },
        "meters": {
            "estimated_diameter_min": 4.124344904,
            "estimated_diameter_max": 9.2223155681
        },
        "miles": {
            "estimated_diameter_min": 0.0025627483,
            "estimated_diameter_max": 0.0057304794
        },
        "feet": {
            "estimated_diameter_min": 13.531315735,
            "estimated_diameter_max": 30.2569418084
        }
    },
    "is_potentially_hazardous_asteroid": false,
    "close_approach_data": [
        {
            "close_approach_date": "2020-09-09",
            "close_approach_date_full": "2020-Sep-09 16:50",
            "epoch_date_close_approach": 1599670200000,
            "relative_velocity": {
                "kilometers_per_second": "17.0377772073",
                "kilometers_per_hour": "61335.9979464586",
                "miles_per_hour": "38111.8038351203"
            },
            "miss_distance": {
                "astronomical": "0.0016394557",
                "lunar": "0.6377482673",
                "kilometers": "245259.080679359",
                "miles": "152396.9259947942"
            },
            "orbiting_body": "Earth"
        },
        {
            "close_approach_date": "2020-09-09",
            "close_approach_date_full": "2020-Sep-09 18:54",
            "epoch_date_close_approach": 1599677640000,
            "relative_velocity": {
                "kilometers_per_second": "17.9632744912",
                "kilometers_per_hour": "64667.7881682779",
                "miles_per_hour": "40182.0487093391"
            },
            "miss_distance": {
                "astronomical": "0.0036987408",
                "lunar": "1.4388101712",
                "kilometers": "553323.745362096",
                "miles": "343819.4322490848"
            },
            "orbiting_body": "Moon"
        }
    ],
    "orbital_data": {
        "orbit_id": "1",
        "orbit_determination_date": "2020-09-14 14:42:04",
        "first_observation_date": "2020-09-12",
        "last_observation_date": "2020-09-14",
        "data_arc_in_days": 2,
        "observations_used": 13,
        "orbit_uncertainty": "8",
        "minimum_orbit_intersection": ".00138302",
        "jupiter_tisserand_invariant": "3.286",
        "epoch_osculation": "2459105.5",
        "eccentricity": ".6622367644743523",
        "semi_major_axis": "2.265148946242673",
        "inclination": ".3089675340770885",
        "ascending_node_longitude": "332.2605760917735",
        "orbital_period": "1245.212792663209",
        "perihelion_distance": ".7650840370304366",
        "perihelion_argument": "308.22781976",
        "aphelion_distance": "3.765213855454909",
        "perihelion_time": "2459059.519717580451",
        "mean_anomaly": "13.2932313003587",
        "mean_motion": ".2891072129367119",
        "equinox": "J2000",
        "orbit_class": {
            "orbit_class_type": "APO",
            "orbit_class_description": "Near-Earth asteroid orbits which cross the Earth’s orbit similar to that of 1862 Apollo",
            "orbit_class_range": "a (semi-major axis) > 1.0 AU; q (perihelion) < 1.017 AU"
        }
    },
    "is_sentry_object": false
}